{
    "links": {
        "self": "http://www.neowsapp.com/rest/v1/neo/3787092?api_key=iIulBulltgU6a56xZRHN4H3l9WmuAYTsLGpBGhQ2"
    },
    "id": "3787092",
    "neo_reference_id": "3787092",
    "name": "(2017 UP1)",
    "designation": "2017 UP1",
    "nasa_jpl_url": "http://ssd.jpl.nasa.gov/sbdb.cgi?sstr=3787092",
    "absolute_magnitude_h": 26.8,
    "estimated_diameter": {
        "kilometers": {
            "estimated_diameter_min": 0.0116025908,
            "estimated_diameter_max": 0.0259441818
        },
        "meters": {
            "estimated_diameter_min": 11.6025908209,
            "estimated_diameter_max": 25.9441817907
        },
        "miles": {
            "estimated_diameter_min": 0.0072095135,
            "estimated_diameter_max": 0.0161209622
        },
        "feet": {
            "estimated_diameter_min": 38.066244069,
            "estimated_diameter_max": 85.1187093863
        }
    },
    "is_potentially_hazardous_asteroid": false,
    "close_approach_data": [
        {
            "close_approach_date": "2017-10-12",
            "close_approach_date_full": "2017-Oct-12 09:24",
            "epoch_date_close_approach": 1507800240000,
            "relative_velocity": {
                "kilometers_per_second": "11.160083168",
                "kilometers_per_hour": "40176.2994047525",
                "miles_per_hour": "24963.9900384697"
            },
            "miss_distance": {
                "astronomical": "0.0158989921",
                "lunar": "6.1847079269",
                "kilometers": "2378455.353306827",
                "miles": "1477903.6252431326"
            },
            "orbiting_body": "Earth"
        }
    ],
    "orbital_data": {
        "orbit_id": "1",
        "orbit_determination_date": "2017-10-19 10:12:07",
        "first_observation_date": "2017-10-17",
        "last_observation_date": "2017-10-19",
        "data_arc_in_days": 2,
        "observations_used": 22,
        "orbit_uncertainty": "8",
        "minimum_orbit_intersection": ".0141421",
        "jupiter_tisserand_invariant": "3.997",
        "epoch_osculation": "2458044.5",
        "eccentricity": ".4578773135935871",
        "semi_major_axis": "1.740455331438414",
        "inclination": "11.46150620376359",
        "ascending_node_longitude": "201.1417168073441",
        "orbital_period": "838.6731692770403",
        "perihelion_distance": ".9435403198497569",
        "perihelion_argument": "139.8622492775069",
        "aphelion_distance": "2.537370343027072",
        "perihelion_time": "2458008.606631643369",
        "mean_anomaly": "15.40720876944943",
        "mean_motion": ".4292494540040312",
        "equinox": "J2000",
        "orbit_class": {
            "orbit_class_type": "APO",
            "orbit_class_description": "Near-Earth asteroid orbits which cross the Earth’s orbit similar to that of 1862 Apollo",
            "orbit_class_range": "a (semi-major axis) > 1.0 AU; q (perihelion) < 1.017 AU"
        }
    },
    "is_sentry_object": false
}